[{"OBJECT_NAME":"STARLINK-30494","OBJECT_ID":"2023-151G","EPOCH":"2026-03-09T08:39:06.366240","MEAN_MOTION":15.28417441,"ECCENTRICITY":0.00011553,"INCLINATION":43.0027,"RA_OF_ASC_NODE":192.4566,"ARG_OF_PERICENTER":241.5536,"MEAN_ANOMALY":118.52,"EPHEMERIS_TYPE":0,"CLASSIFICATION_TYPE":"U","NORAD_CAT_ID":57970,"ELEMENT_SET_NO":999,"REV_AT_EPOCH":13740,"BSTAR":-3.569111e-5,"MEAN_MOTION_DOT":-1.272e-5,"MEAN_MOTION_DDOT":0},{"OBJECT_NAME":"STARLINK-31099","OBJECT_ID":"2024-011S","EPOCH":"2026-03-09T03:19:32.511936","MEAN_MOTION":15.30196831,"ECCENTRICITY":9.56e-5,"INCLINATION":53.1619,"RA_OF_ASC_NODE":16.3855,"ARG_OF_PERICENTER":100.9975,"MEAN_ANOMALY":259.1133,"EPHEMERIS_TYPE":0,"CLASSIFICATION_TYPE":"U","NORAD_CAT_ID":58781,"ELEMENT_SET_NO":999,"REV_AT_EPOCH":12018,"BSTAR":3.4553716e-5,"MEAN_MOTION_DOT":6.64e-6,"MEAN_MOTION_DDOT":0}]
